{
  "type": "FeatureCollection",
  "features": [
    {
      "type": "Feature",
      "properties": {
        "norad_id": 39227,
        "name": "ARIRANG-5 (KOMPSAT-5)",
        "group": "resource",
        "lat": -75.5844737371776,
        "lon": -144.28578655681287,
        "alt_km": 561.1175707495922,
        "timestamp": "2025-12-26T05:31:12.156838+00:00",
        "meta_object_name": "ARIRANG-5 (KOMPSAT-5)",
        "meta_object_id": "2013-042A",
        "meta_epoch": "2025-12-25T23:28:48.482688",
        "meta_mean_motion": 15.04488187,
        "meta_eccentricity": 0.00029697,
        "meta_inclination": 97.6166,
        "meta_ra_of_asc_node": 184.0943,
        "meta_arg_of_pericenter": 33.2502,
        "meta_mean_anomaly": 326.891,
        "meta_ephemeris_type": 0,
        "meta_classification_type": "U",
        "meta_norad_cat_id": 39227,
        "meta_element_set_no": 999,
        "meta_rev_at_epoch": 67781,
        "meta_bstar": 0.00015229562,
        "meta_mean_motion_dot": 2.071e-05,
        "meta_mean_motion_ddot": 0,
        "tle_line1": "1 39227U 13042A   25359.97833892  .00002071  00000+0  15230-3 0  9999",
        "tle_line2": "2 39227  97.6166 184.0943 0002969  33.2502 326.8910 15.04488187677814"
      },
      "geometry": {
        "type": "Point",
        "coordinates": [
          -144.28578655681287,
          -75.5844737371776
        ]
      }
    },
    {
      "type": "Feature",
      "properties": {
        "norad_id": 39418,
        "name": "SKYSAT-A",
        "group": "resource",
        "lat": -76.44100344131674,
        "lon": 82.67970267215458,
        "alt_km": 539.150551728474,
        "timestamp": "2025-12-26T05:31:12.156848+00:00",
        "meta_object_name": "SKYSAT-A",
        "meta_object_id": "2013-066C",
        "meta_epoch": "2025-12-25T17:09:33.388992",
        "meta_mean_motion": 15.11695287,
        "meta_eccentricity": 0.00217004,
        "meta_inclination": 97.4085,
        "meta_ra_of_asc_node": 49.5285,
        "meta_arg_of_pericenter": 190.0652,
        "meta_mean_anomaly": 170.0148,
        "meta_ephemeris_type": 0,
        "meta_classification_type": "U",
        "meta_norad_cat_id": 39418,
        "meta_element_set_no": 999,
        "meta_rev_at_epoch": 66226,
        "meta_bstar": 0.00021063905,
        "meta_mean_motion_dot": 3.542e-05,
        "meta_mean_motion_ddot": 0,
        "tle_line1": "1 39418U 13066C   25359.71496978  .00003542  00000+0  21064-3 0  9995",
        "tle_line2": "2 39418  97.4085  49.5285 0021700 190.0652 170.0148 15.11695287662264"
      },
      "geometry": {
        "type": "Point",
        "coordinates": [
          82.67970267215458,
          -76.44100344131674
        ]
      }
    },
    {
      "type": "Feature",
      "properties": {
        "norad_id": 39419,
        "name": "DUBAISAT-2",
        "group": "resource",
        "lat": -81.80900827652334,
        "lon": 104.89597730780912,
        "alt_km": 541.4006984817051,
        "timestamp": "2025-12-26T05:31:12.156859+00:00",
        "meta_object_name": "DUBAISAT-2",
        "meta_object_id": "2013-066D",
        "meta_epoch": "2025-12-25T23:33:54.559008",
        "meta_mean_motion": 15.08482076,
        "meta_eccentricity": 0.00098318,
        "meta_inclination": 97.4469,
        "meta_ra_of_asc_node": 349.9819,
        "meta_arg_of_pericenter": 269.4023,
        "meta_mean_anomaly": 90.6079,
        "meta_ephemeris_type": 0,
        "meta_classification_type": "U",
        "meta_norad_cat_id": 39419,
        "meta_element_set_no": 999,
        "meta_rev_at_epoch": 66026,
        "meta_bstar": 0.00026493183,
        "meta_mean_motion_dot": 4.072e-05,
        "meta_mean_motion_ddot": 0,
        "tle_line1": "1 39419U 13066D   25359.98188147  .00004072  00000+0  26493-3 0  9991",
        "tle_line2": "2 39419  97.4469 349.9819 0009831 269.4023  90.6079 15.08482076660269"
      },
      "geometry": {
        "type": "Point",
        "coordinates": [
          104.89597730780912,
          -81.80900827652334
        ]
      }
    },
    {
      "type": "Feature",
      "properties": {
        "norad_id": 39574,
        "name": "GPM-CORE",
        "group": "resource",
        "lat": 34.197908189505014,
        "lon": -173.98386263290504,
        "alt_km": 434.37466211037554,
        "timestamp": "2025-12-26T05:31:12.156869+00:00",
        "meta_object_name": "GPM-CORE",
        "meta_object_id": "2014-009C",
        "meta_epoch": "2025-12-25T21:35:06.956448",
        "meta_mean_motion": 15.44669941,
        "meta_eccentricity": 0.00090584,
        "meta_inclination": 64.9728,
        "meta_ra_of_asc_node": 168.6114,
        "meta_arg_of_pericenter": 251.1703,
        "meta_mean_anomaly": 108.8456,
        "meta_ephemeris_type": 0,
        "meta_classification_type": "U",
        "meta_norad_cat_id": 39574,
        "meta_element_set_no": 999,
        "meta_rev_at_epoch": 67104,
        "meta_bstar": 0.00019412562,
        "meta_mean_motion_dot": 8.869e-05,
        "meta_mean_motion_ddot": 0,
        "tle_line1": "1 39574U 14009C   25359.89938607  .00008869  00000+0  19413-3 0  9997",
        "tle_line2": "2 39574  64.9728 168.6114 0009058 251.1703 108.8456 15.44669941671043"
      },
      "geometry": {
        "type": "Point",
        "coordinates": [
          -173.98386263290504,
          34.197908189505014
        ]
      }
    },
    {
      "type": "Feature",
      "properties": {
        "norad_id": 39634,
        "name": "SENTINEL-1A",
        "group": "resource",
        "lat": 27.50838726606164,
        "lon": 0.9754939592061608,
        "alt_km": 694.1595341855,
        "timestamp": "2025-12-26T05:31:12.156879+00:00",
        "meta_object_name": "SENTINEL-1A",
        "meta_object_id": "2014-016A",
        "meta_epoch": "2025-12-25T22:48:36.452160",
        "meta_mean_motion": 14.59199107,
        "meta_eccentricity": 0.00012405,
        "meta_inclination": 98.1803,
        "meta_ra_of_asc_node": 4.996,
        "meta_arg_of_pericenter": 86.5424,
        "meta_mean_anomaly": 273.5917,
        "meta_ephemeris_type": 0,
        "meta_classification_type": "U",
        "meta_norad_cat_id": 39634,
        "meta_element_set_no": 999,
        "meta_rev_at_epoch": 62475,
        "meta_bstar": -2.0805929e-05,
        "meta_mean_motion_dot": -1.44e-06,
        "meta_mean_motion_ddot": 0,
        "tle_line1": "1 39634U 14016A   25359.95042190 -.00000144  00000+0 -20806-4 0  9991",
        "tle_line2": "2 39634  98.1803   4.9960 0001240  86.5424 273.5917 14.59199107624754"
      },
      "geometry": {
        "type": "Point",
        "coordinates": [
          0.9754939592061608,
          27.50838726606164
        ]
      }
    },
    {
      "type": "Feature",
      "properties": {
        "norad_id": 39731,
        "name": "KAZEOSAT 1",
        "group": "resource",
        "lat": -69.93899844434101,
        "lon": -131.8554035439905,
        "alt_km": 759.7272827704037,
        "timestamp": "2025-12-26T05:31:12.156889+00:00",
        "meta_object_name": "KAZEOSAT 1",
        "meta_object_id": "2014-024A",
        "meta_epoch": "2025-12-25T23:21:39.237984",
        "meta_mean_motion": 14.42069303,
        "meta_eccentricity": 0.00012289,
        "meta_inclination": 98.3414,
        "meta_ra_of_asc_node": 71.5828,
        "meta_arg_of_pericenter": 97.706,
        "meta_mean_anomaly": 262.4269,
        "meta_ephemeris_type": 0,
        "meta_classification_type": "U",
        "meta_norad_cat_id": 39731,
        "meta_element_set_no": 999,
        "meta_rev_at_epoch": 61359,
        "meta_bstar": 4.5204162e-05,
        "meta_mean_motion_dot": 1.06e-06,
        "meta_mean_motion_ddot": 0,
        "tle_line1": "1 39731U 14024A   25359.97337081  .00000106  00000+0  45204-4 0  9991",
        "tle_line2": "2 39731  98.3414  71.5828 0001228  97.7060 262.4269 14.42069303613594"
      },
      "geometry": {
        "type": "Point",
        "coordinates": [
          -131.8554035439905,
          -69.93899844434101
        ]
      }
    },
    {
      "type": "Feature",
      "properties": {
        "norad_id": 39766,
        "name": "ALOS-2",
        "group": "resource",
        "lat": 30.32754345023719,
        "lon": -80.44402046739128,
        "alt_km": 628.857871049313,
        "timestamp": "2025-12-26T05:31:12.156899+00:00",
        "meta_object_name": "ALOS-2",
        "meta_object_id": "2014-029A",
        "meta_epoch": "2025-12-25T22:21:18.010080",
        "meta_mean_motion": 14.79467964,
        "meta_eccentricity": 0.0001397,
        "meta_inclination": 97.9219,
        "meta_ra_of_asc_node": 94.5894,
        "meta_arg_of_pericenter": 97.1377,
        "meta_mean_anomaly": 262.9993,
        "meta_ephemeris_type": 0,
        "meta_classification_type": "U",
        "meta_norad_cat_id": 39766,
        "meta_element_set_no": 999,
        "meta_rev_at_epoch": 62596,
        "meta_bstar": 4.6249964e-05,
        "meta_mean_motion_dot": 2.94e-06,
        "meta_mean_motion_ddot": 0,
        "tle_line1": "1 39766U 14029A   25359.93145845  .00000294  00000+0  46250-4 0  9995",
        "tle_line2": "2 39766  97.9219  94.5894 0001397  97.1377 262.9993 14.79467964625968"
      },
      "geometry": {
        "type": "Point",
        "coordinates": [
          -80.44402046739128,
          30.32754345023719
        ]
      }
    }
  ]
}